[{"OBJECT_NAME":"ONEWEB-0521","OBJECT_ID":"2022-138AC","EPOCH":"2026-03-09T23:52:17.048064","MEAN_MOTION":13.19724197,"ECCENTRICITY":0.00014935,"INCLINATION":87.9237,"RA_OF_ASC_NODE":324.7113,"ARG_OF_PERICENTER":73.5755,"MEAN_ANOMALY":286.5541,"EPHEMERIS_TYPE":0,"CLASSIFICATION_TYPE":"U","NORAD_CAT_ID":54139,"ELEMENT_SET_NO":999,"REV_AT_EPOCH":16368,"BSTAR":-0.00069749736,"MEAN_MOTION_DOT":-2.66e-6,"MEAN_MOTION_DDOT":0},{"OBJECT_NAME":"THOR ABLESTAR DEB","OBJECT_ID":"1961-015GZ","EPOCH":"2026-03-09T22:21:37.506240","MEAN_MOTION":13.59537467,"ECCENTRICITY":0.02061167,"INCLINATION":65.8715,"RA_OF_ASC_NODE":269.4748,"ARG_OF_PERICENTER":272.8274,"MEAN_ANOMALY":200.5049,"EPHEMERIS_TYPE":0,"CLASSIFICATION_TYPE":"U","NORAD_CAT_ID":648,"ELEMENT_SET_NO":999,"REV_AT_EPOCH":18548,"BSTAR":0.00052829081,"MEAN_MOTION_DOT":3.73e-6,"MEAN_MOTION_DDOT":0}]
